DELTA 2 R/B(1)          
1 20453U 90008B   25343.45549551  .00055475  00000+0  89850-3 0  9994
2 20453  35.6071  41.7363 0111677 148.6239 212.1216 15.44827599912122
COSMOS 2058             
1 20465U 90010A   25343.44556955  .00007347  00000+0  44511-3 0  9995
2 20465  82.4656 136.2707 0008257 287.1852  72.8474 15.10419561928612
SL-14 R/B               
1 20466U 90010B   25343.50778462  .00000817  00000+0  96388-4 0  9997
2 20466  82.5019 352.0827 0018525 234.4589 125.4899 14.83467077915110
SL-14 R/B               
1 20511U 90018B   25343.37140229  .00000944  00000+0  11575-3 0  9990
2 20511  82.5207 307.5129 0017279  33.9532 326.2785 14.82041472909209
HST                     
1 20580U 90037B   25343.19989289  .00010184  00000+0  35435-3 0  9992
2 20580  28.4695 296.5825 0001856 196.3317 163.7219 15.27973320759456
SL-16 R/B               
1 20625U 90046B   25343.49405939  .00000068  00000+0  59756-4 0  9993
2 20625  70.9988 127.3373 0011844  79.2982 280.9474 14.15001203835635
COSMOS 2084             
1 20663U 90055A   25343.17943795  .00004117  00000+0  29975-3 0  9995
2 20663  62.7911 284.1241 0032300 174.3018 185.8457 15.04982140922699
SL-6 R/B(2)             
1 20666U 90055D   25342.97518831  .00002644  00000+0  20953-3 0  9994
2 20666  62.7824 202.2071 0012345 305.9931  54.0023 15.03049402924557
SL-8 R/B                
1 20775U 90078B   25343.43133596  .00029102  00000+0  90130-3 0  9995
2 20775  82.9051 332.2711 0373089 317.0504  40.2123 14.85729887795885
SL-8 R/B                
1 21088U 91006B   25343.50486793  .00000104  00000+0  89128-4 0  9990
2 21088  82.9431 237.1188 0021327 289.4323 244.2714 13.77489533751652
OKEAN-3                 
1 21397U 91039A   25343.48889389  .00005161  00000+0  37025-3 0  9990
2 21397  82.5168  64.1937 0012820 278.4873  81.4900 15.04083746851471
COSMOS 2151             
1 21422U 91042A   25343.48725249  .00003120  00000+0  25066-3 0  9992
2 21422  82.4960 170.6378 0012832  10.5015 349.6474 14.99669725849671
