CCSDS_OMM_VERS = 2.0
CREATION_DATE  = 
ORIGINATOR     = 

OBJECT_NAME    = DELTA 2 R/B(1)
OBJECT_ID      = 1990-008B
CENTER_NAME    = EARTH
REF_FRAME      = TEME
TIME_SYSTEM    = UTC
MEAN_ELEMENT_THEORY = SGP/SGP4

EPOCH          = 2025-12-09T10:55:54.812064
MEAN_MOTION    = 15.44827599
ECCENTRICITY   = .0111677
INCLINATION    = 35.6071
RA_OF_ASC_NODE = 41.7363
ARG_OF_PERICENTER = 148.6239
MEAN_ANOMALY   = 212.1216

EPHEMERIS_TYPE = 0
CLASSIFICATION_TYPE = U
NORAD_CAT_ID   = 20453
ELEMENT_SET_NO = 999
REV_AT_EPOCH   = 91212
BSTAR          = .8985E-3
MEAN_MOTION_DOT = .55475E-3
MEAN_MOTION_DDOT = 0

CCSDS_OMM_VERS = 2.0
CREATION_DATE  = 
ORIGINATOR     = 

OBJECT_NAME    = COSMOS 2058
OBJECT_ID      = 1990-010A
CENTER_NAME    = EARTH
REF_FRAME      = TEME
TIME_SYSTEM    = UTC
MEAN_ELEMENT_THEORY = SGP/SGP4

EPOCH          = 2025-12-09T10:41:37.209120
MEAN_MOTION    = 15.10419561
ECCENTRICITY   = .0008257
INCLINATION    = 82.4656
RA_OF_ASC_NODE = 136.2707
ARG_OF_PERICENTER = 287.1852
MEAN_ANOMALY   = 72.8474

EPHEMERIS_TYPE = 0
CLASSIFICATION_TYPE = U
NORAD_CAT_ID   = 20465
ELEMENT_SET_NO = 999
REV_AT_EPOCH   = 92861
BSTAR          = .44511E-3
MEAN_MOTION_DOT = .7347E-4
MEAN_MOTION_DDOT = 0

CCSDS_OMM_VERS = 2.0
CREATION_DATE  = 
ORIGINATOR     = 

OBJECT_NAME    = SL-14 R/B
OBJECT_ID      = 1990-010B
CENTER_NAME    = EARTH
REF_FRAME      = TEME
TIME_SYSTEM    = UTC
MEAN_ELEMENT_THEORY = SGP/SGP4

EPOCH          = 2025-12-09T12:11:12.591168
MEAN_MOTION    = 14.83467077
ECCENTRICITY   = .0018525
INCLINATION    = 82.5019
RA_OF_ASC_NODE = 352.0827
ARG_OF_PERICENTER = 234.4589
MEAN_ANOMALY   = 125.4899

EPHEMERIS_TYPE = 0
CLASSIFICATION_TYPE = U
NORAD_CAT_ID   = 20466
ELEMENT_SET_NO = 999
REV_AT_EPOCH   = 91511
BSTAR          = .96388E-4
MEAN_MOTION_DOT = .817E-5
MEAN_MOTION_DDOT = 0

CCSDS_OMM_VERS = 2.0
CREATION_DATE  = 
ORIGINATOR     = 

OBJECT_NAME    = SL-14 R/B
OBJECT_ID      = 1990-018B
CENTER_NAME    = EARTH
REF_FRAME      = TEME
TIME_SYSTEM    = UTC
MEAN_ELEMENT_THEORY = SGP/SGP4

EPOCH          = 2025-12-09T08:54:49.157856
MEAN_MOTION    = 14.82041472
ECCENTRICITY   = .0017279
INCLINATION    = 82.5207
RA_OF_ASC_NODE = 307.5129
ARG_OF_PERICENTER = 33.9532
MEAN_ANOMALY   = 326.2785

EPHEMERIS_TYPE = 0
CLASSIFICATION_TYPE = U
NORAD_CAT_ID   = 20511
ELEMENT_SET_NO = 999
REV_AT_EPOCH   = 90920
BSTAR          = .11575E-3
MEAN_MOTION_DOT = .944E-5
MEAN_MOTION_DDOT = 0

CCSDS_OMM_VERS = 2.0
CREATION_DATE  = 
ORIGINATOR     = 

OBJECT_NAME    = HST
OBJECT_ID      = 1990-037B
CENTER_NAME    = EARTH
REF_FRAME      = TEME
TIME_SYSTEM    = UTC
MEAN_ELEMENT_THEORY = SGP/SGP4

EPOCH          = 2025-12-09T04:47:50.745696
MEAN_MOTION    = 15.27973320
ECCENTRICITY   = .0001856
INCLINATION    = 28.4695
RA_OF_ASC_NODE = 296.5825
ARG_OF_PERICENTER = 196.3317
MEAN_ANOMALY   = 163.7219

EPHEMERIS_TYPE = 0
CLASSIFICATION_TYPE = U
NORAD_CAT_ID   = 20580
ELEMENT_SET_NO = 999
REV_AT_EPOCH   = 75945
BSTAR          = .35435E-3
MEAN_MOTION_DOT = .10184E-3
MEAN_MOTION_DDOT = 0

CCSDS_OMM_VERS = 2.0
CREATION_DATE  = 
ORIGINATOR     = 

OBJECT_NAME    = SL-16 R/B
OBJECT_ID      = 1990-046B
CENTER_NAME    = EARTH
REF_FRAME      = TEME
TIME_SYSTEM    = UTC
MEAN_ELEMENT_THEORY = SGP/SGP4

EPOCH          = 2025-12-09T11:51:26.731296
MEAN_MOTION    = 14.15001203
ECCENTRICITY   = .0011844
INCLINATION    = 70.9988
RA_OF_ASC_NODE = 127.3373
ARG_OF_PERICENTER = 79.2982
MEAN_ANOMALY   = 280.9474

EPHEMERIS_TYPE = 0
CLASSIFICATION_TYPE = U
NORAD_CAT_ID   = 20625
ELEMENT_SET_NO = 999
REV_AT_EPOCH   = 83563
BSTAR          = .59756E-4
MEAN_MOTION_DOT = .68E-6
MEAN_MOTION_DDOT = 0

CCSDS_OMM_VERS = 2.0
CREATION_DATE  = 
ORIGINATOR     = 

OBJECT_NAME    = COSMOS 2084
OBJECT_ID      = 1990-055A
CENTER_NAME    = EARTH
REF_FRAME      = TEME
TIME_SYSTEM    = UTC
MEAN_ELEMENT_THEORY = SGP/SGP4

EPOCH          = 2025-12-09T04:18:23.438880
MEAN_MOTION    = 15.04982140
ECCENTRICITY   = .00323003
INCLINATION    = 62.7911
RA_OF_ASC_NODE = 284.1241
ARG_OF_PERICENTER = 174.3018
MEAN_ANOMALY   = 185.8457

EPHEMERIS_TYPE = 0
CLASSIFICATION_TYPE = U
NORAD_CAT_ID   = 20663
ELEMENT_SET_NO = 999
REV_AT_EPOCH   = 92269
BSTAR          = .29975079E-3
MEAN_MOTION_DOT = .4117E-4
MEAN_MOTION_DDOT = 0

CCSDS_OMM_VERS = 2.0
CREATION_DATE  = 
ORIGINATOR     = 

OBJECT_NAME    = SL-6 R/B(2)
OBJECT_ID      = 1990-055D
CENTER_NAME    = EARTH
REF_FRAME      = TEME
TIME_SYSTEM    = UTC
MEAN_ELEMENT_THEORY = SGP/SGP4

EPOCH          = 2025-12-08T23:24:16.269984
MEAN_MOTION    = 15.03049402
ECCENTRICITY   = .0012345
INCLINATION    = 62.7824
RA_OF_ASC_NODE = 202.2071
ARG_OF_PERICENTER = 305.9931
MEAN_ANOMALY   = 54.0023

EPHEMERIS_TYPE = 0
CLASSIFICATION_TYPE = U
NORAD_CAT_ID   = 20666
ELEMENT_SET_NO = 999
REV_AT_EPOCH   = 92455
BSTAR          = .20953E-3
MEAN_MOTION_DOT = .2644E-4
MEAN_MOTION_DDOT = 0

CCSDS_OMM_VERS = 2.0
CREATION_DATE  = 
ORIGINATOR     = 

OBJECT_NAME    = SL-8 R/B
OBJECT_ID      = 1990-078B
CENTER_NAME    = EARTH
REF_FRAME      = TEME
TIME_SYSTEM    = UTC
MEAN_ELEMENT_THEORY = SGP/SGP4

EPOCH          = 2025-12-09T10:21:07.426944
MEAN_MOTION    = 14.85729887
ECCENTRICITY   = .0373089
INCLINATION    = 82.9051
RA_OF_ASC_NODE = 332.2711
ARG_OF_PERICENTER = 317.0504
MEAN_ANOMALY   = 40.2123

EPHEMERIS_TYPE = 0
CLASSIFICATION_TYPE = U
NORAD_CAT_ID   = 20775
ELEMENT_SET_NO = 999
REV_AT_EPOCH   = 79588
BSTAR          = .9013E-3
MEAN_MOTION_DOT = .29102E-3
MEAN_MOTION_DDOT = 0

CCSDS_OMM_VERS = 2.0
CREATION_DATE  = 
ORIGINATOR     = 

OBJECT_NAME    = SL-8 R/B
OBJECT_ID      = 1991-006B
CENTER_NAME    = EARTH
REF_FRAME      = TEME
TIME_SYSTEM    = UTC
MEAN_ELEMENT_THEORY = SGP/SGP4

EPOCH          = 2025-12-09T12:07:00.589152
MEAN_MOTION    = 13.77489533
ECCENTRICITY   = .0021327
INCLINATION    = 82.9431
RA_OF_ASC_NODE = 237.1188
ARG_OF_PERICENTER = 289.4323
MEAN_ANOMALY   = 244.2714

EPHEMERIS_TYPE = 0
CLASSIFICATION_TYPE = U
NORAD_CAT_ID   = 21088
ELEMENT_SET_NO = 999
REV_AT_EPOCH   = 75165
BSTAR          = .89128E-4
MEAN_MOTION_DOT = .104E-5
MEAN_MOTION_DDOT = 0

CCSDS_OMM_VERS = 2.0
CREATION_DATE  = 
ORIGINATOR     = 

OBJECT_NAME    = OKEAN-3
OBJECT_ID      = 1991-039A
CENTER_NAME    = EARTH
REF_FRAME      = TEME
TIME_SYSTEM    = UTC
MEAN_ELEMENT_THEORY = SGP/SGP4

EPOCH          = 2025-12-09T11:44:00.432096
MEAN_MOTION    = 15.04083746
ECCENTRICITY   = .001282
INCLINATION    = 82.5168
RA_OF_ASC_NODE = 64.1937
ARG_OF_PERICENTER = 278.4873
MEAN_ANOMALY   = 81.4900

EPHEMERIS_TYPE = 0
CLASSIFICATION_TYPE = U
NORAD_CAT_ID   = 21397
ELEMENT_SET_NO = 999
REV_AT_EPOCH   = 85147
BSTAR          = .37025E-3
MEAN_MOTION_DOT = .5161E-4
MEAN_MOTION_DDOT = 0

CCSDS_OMM_VERS = 2.0
CREATION_DATE  = 
ORIGINATOR     = 

OBJECT_NAME    = COSMOS 2151
OBJECT_ID      = 1991-042A
CENTER_NAME    = EARTH
REF_FRAME      = TEME
TIME_SYSTEM    = UTC
MEAN_ELEMENT_THEORY = SGP/SGP4

EPOCH          = 2025-12-09T11:41:38.615136
MEAN_MOTION    = 14.99669725
ECCENTRICITY   = .0012832
INCLINATION    = 82.4960
RA_OF_ASC_NODE = 170.6378
ARG_OF_PERICENTER = 10.5015
MEAN_ANOMALY   = 349.6474

EPHEMERIS_TYPE = 0
CLASSIFICATION_TYPE = U
NORAD_CAT_ID   = 21422
ELEMENT_SET_NO = 999
REV_AT_EPOCH   = 84967
BSTAR          = .25066E-3
MEAN_MOTION_DOT = .312E-4
MEAN_MOTION_DDOT = 0

